start=new Date('2021-12-30T00:00:00.000Z').valueOf();
sats=[{"CLASSIFICATION_TYPE":"U","APOAPSIS":"551.786","INCLINATION":"53.0532","SEMIMAJOR_AXIS":"6925.356","RA_OF_ASC_NODE":"233.6014","LAUNCH_DATE":"2021-03-04","SITE":"AFETR","BSTAR":"0.00056773000000","CENTER_NAME":"EARTH","PERIOD":"95.592","REV_AT_EPOCH":"4719","MEAN_ELEMENT_THEORY":"SGP4","TLE_LINE1":"1 47738U 21017S   21363.90166532  .00008186  00000-0  56773-3 0  9991","OBJECT_ID":"2021-017S","GP_ID":"192744563","EPOCH":"2021-12-29T21:38:23.883648","ECCENTRICITY":"0.00065910","PERIAPSIS":"542.657","TLE_LINE2":"2 47738  53.0532 233.6014 0006591  92.0428 268.1316 15.06397457 47199","FILE":"3255236","REF_FRAME":"TEME","OBJECT_TYPE":"PAYLOAD","MEAN_MOTION_DDOT":"0.0000000000000","ELEMENT_SET_NO":"999","COUNTRY_CODE":"US","EPHEMERIS_TYPE":"0","MEAN_MOTION":"15.06397457","MEAN_MOTION_DOT":"0.00008186","TIME_SYSTEM":"UTC","NORAD_CAT_ID":"47738","RCS_SIZE":"LARGE","ARG_OF_PERICENTER":"92.0428","DECAY_DATE":null,"MEAN_ANOMALY":"268.1316","OBJECT_NAME":"STARLINK-2149"},{"APOAPSIS":"548.347","CLASSIFICATION_TYPE":"U","SEMIMAJOR_AXIS":"6925.361","INCLINATION":"53.0549","RA_OF_ASC_NODE":"258.6815","LAUNCH_DATE":"2021-03-04","SITE":"AFETR","CENTER_NAME":"EARTH","BSTAR":"0.00007267000000","OBJECT_ID":"2021-017T","TLE_LINE1":"1 47739U 21017T   21363.88275563  .00000801  00000-0  72670-4 0  9995","MEAN_ELEMENT_THEORY":"SGP4","REV_AT_EPOCH":"4684","PERIOD":"95.592","ECCENTRICITY":"0.00016190","GP_ID":"192744815","EPOCH":"2021-12-29T21:11:10.086432","PERIAPSIS":"546.104","FILE":"3255236","TLE_LINE2":"2 47739  53.0549 258.6815 0001619  65.1453 294.9704 15.06396084 46843","OBJECT_TYPE":"PAYLOAD","REF_FRAME":"TEME","ELEMENT_SET_NO":"999","COUNTRY_CODE":"US","MEAN_MOTION_DDOT":"0.0000000000000","RCS_SIZE":"LARGE","NORAD_CAT_ID":"47739","MEAN_MOTION_DOT":"0.00000801","TIME_SYSTEM":"UTC","EPHEMERIS_TYPE":"0","MEAN_MOTION":"15.06396084","MEAN_ANOMALY":"294.9704","DECAY_DATE":null,"ARG_OF_PERICENTER":"65.1453","OBJECT_NAME":"STARLINK-2150"},{"OBJECT_ID":"2021-017U","TLE_LINE1":"1 47740U 21017U   21363.93020944  .00001821  00000-0  14115-3 0  9996","MEAN_ELEMENT_THEORY":"SGP4","REV_AT_EPOCH":"4705","PERIOD":"95.592","BSTAR":"0.00014115000000","CENTER_NAME":"EARTH","SITE":"AFETR","LAUNCH_DATE":"2021-03-04","RA_OF_ASC_NODE":"243.4753","SEMIMAJOR_AXIS":"6925.349","INCLINATION":"53.0529","APOAPSIS":"548.518","CLASSIFICATION_TYPE":"U","OBJECT_NAME":"STARLINK-2152","MEAN_ANOMALY":"292.1470","DECAY_DATE":null,"ARG_OF_PERICENTER":"67.9719","NORAD_CAT_ID":"47740","RCS_SIZE":"LARGE","TIME_SYSTEM":"UTC","MEAN_MOTION_DOT":"0.00001821","MEAN_MOTION":"15.06399931","EPHEMERIS_TYPE":"0","ELEMENT_SET_NO":"999","COUNTRY_CODE":"US","MEAN_MOTION_DDOT":"0.0000000000000","OBJECT_TYPE":"PAYLOAD","REF_FRAME":"TEME","TLE_LINE2":"2 47740  53.0529 243.4753 0001883  67.9719 292.1470 15.06399931 47052","FILE":"3255236","PERIAPSIS":"545.910","ECCENTRICITY":"0.00018830","EPOCH":"2021-12-29T22:19:30.095616","GP_ID":"192743563"},{"ARG_OF_PERICENTER":"69.4714","DECAY_DATE":null,"MEAN_ANOMALY":"290.6491","OBJECT_NAME":"STARLINK-2154","MEAN_MOTION_DDOT":"0.0000000000000","ELEMENT_SET_NO":"999","COUNTRY_CODE":"US","EPHEMERIS_TYPE":"0","MEAN_MOTION":"15.06397878","MEAN_MOTION_DOT":"0.00001701","TIME_SYSTEM":"UTC","NORAD_CAT_ID":"47741","RCS_SIZE":"LARGE","FILE":"3255236","TLE_LINE2":"2 47741  53.0529 243.4080 0002009  69.4714 290.6491 15.06397878 47019","REF_FRAME":"TEME","OBJECT_TYPE":"PAYLOAD","GP_ID":"192744315","EPOCH":"2021-12-29T22:40:44.558688","ECCENTRICITY":"0.00020090","PERIAPSIS":"545.829","BSTAR":"0.00013311000000","CENTER_NAME":"EARTH","REV_AT_EPOCH":"4701","PERIOD":"95.592","MEAN_ELEMENT_THEORY":"SGP4","TLE_LINE1":"1 47741U 21017V   21363.94496017  .00001701  00000-0  13311-3 0  9990","OBJECT_ID":"2021-017V","RA_OF_ASC_NODE":"243.4080","LAUNCH_DATE":"2021-03-04","SITE":"AFETR","CLASSIFICATION_TYPE":"U","APOAPSIS":"548.611","INCLINATION":"53.0529","SEMIMAJOR_AXIS":"6925.355"},{"ARG_OF_PERICENTER":"69.6709","DECAY_DATE":null,"MEAN_ANOMALY":"290.4500","OBJECT_NAME":"STARLINK-2156","MEAN_MOTION_DDOT":"0.0000000000000","COUNTRY_CODE":"US","ELEMENT_SET_NO":"999","MEAN_MOTION":"15.06396618","EPHEMERIS_TYPE":"0","TIME_SYSTEM":"UTC","MEAN_MOTION_DOT":"0.00000864","NORAD_CAT_ID":"47742","RCS_SIZE":"LARGE","TLE_LINE2":"2 47742  53.0538 233.6574 0002044  69.6709 290.4500 15.06396618 47193","FILE":"3255236","REF_FRAME":"TEME","OBJECT_TYPE":"PAYLOAD","EPOCH":"2021-12-29T21:22:26.993280","GP_ID":"192745064","ECCENTRICITY":"0.00020440","PERIAPSIS":"545.808","CENTER_NAME":"EARTH","BSTAR":"0.00007693600000","REV_AT_EPOCH":"4719","PERIOD":"95.592","MEAN_ELEMENT_THEORY":"SGP4","TLE_LINE1":"1 47742U 21017W   21363.89059020  .00000864  00000-0  76936-4 0  9996","OBJECT_ID":"2021-017W","RA_OF_ASC_NODE":"233.6574","SITE":"AFETR","LAUNCH_DATE":"2021-03-04","CLASSIFICATION_TYPE":"U","APOAPSIS":"548.639","INCLINATION":"53.0538","SEMIMAJOR_AXIS":"6925.359"},{"CLASSIFICATION_TYPE":"U","APOAPSIS":"548.641","INCLINATION":"53.0544","SEMIMAJOR_AXIS":"6925.346","RA_OF_ASC_NODE":"233.5213","LAUNCH_DATE":"2021-03-04","SITE":"AFETR","BSTAR":"0.00012428000000","CENTER_NAME":"EARTH","REV_AT_EPOCH":"4717","PERIOD":"95.592","MEAN_ELEMENT_THEORY":"SGP4","TLE_LINE1":"1 47743U 21017X   21363.91639049  .00001570  00000-0  12428-3 0  9995","OBJECT_ID":"2021-017X","GP_ID":"192745316","EPOCH":"2021-12-29T21:59:36.138336","ECCENTRICITY":"0.00020640","PERIAPSIS":"545.782","TLE_LINE2":"2 47743  53.0544 233.5213 0002064  67.0166 293.1041 15.06400682 47176","FILE":"3255236","REF_FRAME":"TEME","OBJECT_TYPE":"PAYLOAD","MEAN_MOTION_DDOT":"0.0000000000000","COUNTRY_CODE":"US","ELEMENT_SET_NO":"999","EPHEMERIS_TYPE":"0","MEAN_MOTION":"15.06400682","TIME_SYSTEM":"UTC","MEAN_MOTION_DOT":"0.00001570","NORAD_CAT_ID":"47743","RCS_SIZE":"LARGE","ARG_OF_PERICENTER":"67.0166","DECAY_DATE":null,"MEAN_ANOMALY":"293.1041","OBJECT_NAME":"STARLINK-2157"},{"OBJECT_NAME":"STARLINK-2158","DECAY_DATE":null,"ARG_OF_PERICENTER":"69.6986","MEAN_ANOMALY":"290.4206","TIME_SYSTEM":"UTC","MEAN_MOTION_DOT":"0.00003084","MEAN_MOTION":"15.06397472","EPHEMERIS_TYPE":"0","NORAD_CAT_ID":"47744","RCS_SIZE":"LARGE","MEAN_MOTION_DDOT":"0.0000000000000","COUNTRY_CODE":"US","ELEMENT_SET_NO":"999","REF_FRAME":"TEME","OBJECT_TYPE":"PAYLOAD","FILE":"3255236","TLE_LINE2":"2 47744  53.0544 233.6359 0001898  69.6986 290.4206 15.06397472 47198","PERIAPSIS":"545.907","GP_ID":"192744064","EPOCH":"2021-12-29T21:27:45.569952","ECCENTRICITY":"0.00018980","MEAN_ELEMENT_THEORY":"SGP4","REV_AT_EPOCH":"4719","PERIOD":"95.592","OBJECT_ID":"2021-017Y","TLE_LINE1":"1 47744U 21017Y   21363.89427743  .00003084  00000-0  22589-3 0  9990","CENTER_NAME":"EARTH","BSTAR":"0.00022589000000","SITE":"AFETR","LAUNCH_DATE":"2021-03-04","RA_OF_ASC_NODE":"233.6359","SEMIMAJOR_AXIS":"6925.356","INCLINATION":"53.0544","CLASSIFICATION_TYPE":"U","APOAPSIS":"548.536"},{"TLE_LINE2":"2 47745  53.0535 243.5162 0002372  49.7143 310.4053 15.06393425 47000","FILE":"3255236","OBJECT_TYPE":"PAYLOAD","REF_FRAME":"TEME","ECCENTRICITY":"0.00023720","EPOCH":"2021-12-29T22:08:53.738016","GP_ID":"192743815","PERIAPSIS":"545.591","MEAN_ANOMALY":"310.4053","DECAY_DATE":null,"ARG_OF_PERICENTER":"49.7143","OBJECT_NAME":"STARLINK-2159","ELEMENT_SET_NO":"999","COUNTRY_CODE":"US","MEAN_MOTION_DDOT":"0.0000000000000","NORAD_CAT_ID":"47745","RCS_SIZE":"LARGE","MEAN_MOTION_DOT":"-0.00000351","TIME_SYSTEM":"UTC","EPHEMERIS_TYPE":"0","MEAN_MOTION":"15.06393425","APOAPSIS":"548.876","CLASSIFICATION_TYPE":"U","SEMIMAJOR_AXIS":"6925.369","INCLINATION":"53.0535","CENTER_NAME":"EARTH","BSTAR":"-0.00000467260000","OBJECT_ID":"2021-017Z","TLE_LINE1":"1 47745U 21017Z   21363.92284419 -.00000351  00000-0 -46726-5 0  9993","MEAN_ELEMENT_THEORY":"SGP4","REV_AT_EPOCH":"4700","PERIOD":"95.593","RA_OF_ASC_NODE":"243.5162","SITE":"AFETR","LAUNCH_DATE":"2021-03-04"},{"INCLINATION":"53.0543","SEMIMAJOR_AXIS":"6925.371","CLASSIFICATION_TYPE":"U","APOAPSIS":"548.558","LAUNCH_DATE":"2021-03-04","SITE":"AFETR","RA_OF_ASC_NODE":"243.5190","REV_AT_EPOCH":"4699","PERIOD":"95.593","MEAN_ELEMENT_THEORY":"SGP4","TLE_LINE1":"1 47746U 21017AA  21363.91547137  .00001096  00000-0  92496-4 0  9991","OBJECT_ID":"2021-017AA","BSTAR":"0.00009249600000","CENTER_NAME":"EARTH","PERIAPSIS":"545.914","EPOCH":"2021-12-29T21:58:16.726368","GP_ID":"192744564","ECCENTRICITY":"0.00019090","REF_FRAME":"TEME","OBJECT_TYPE":"PAYLOAD","TLE_LINE2":"2 47746  53.0543 243.5190 0001909  59.1444 300.9732 15.06392632 46999","FILE":"3255236","EPHEMERIS_TYPE":"0","MEAN_MOTION":"15.06392632","TIME_SYSTEM":"UTC","MEAN_MOTION_DOT":"0.00001096","NORAD_CAT_ID":"47746","RCS_SIZE":"LARGE","MEAN_MOTION_DDOT":"0.0000000000000","COUNTRY_CODE":"US","ELEMENT_SET_NO":"999","OBJECT_NAME":"STARLINK-2160","ARG_OF_PERICENTER":"59.1444","DECAY_DATE":null,"MEAN_ANOMALY":"300.9732"},{"PERIAPSIS":"545.775","GP_ID":"192744816","EPOCH":"2021-12-29T21:54:19.469376","ECCENTRICITY":"0.00021010","REF_FRAME":"TEME","OBJECT_TYPE":"PAYLOAD","TLE_LINE2":"2 47747  53.0545 233.5537 0002101  69.2690 290.8524 15.06394526 47177","FILE":"3255236","TIME_SYSTEM":"UTC","MEAN_MOTION_DOT":"0.00000051","MEAN_MOTION":"15.06394526","EPHEMERIS_TYPE":"0","NORAD_CAT_ID":"47747","RCS_SIZE":"LARGE","MEAN_MOTION_DDOT":"0.0000000000000","ELEMENT_SET_NO":"999","COUNTRY_CODE":"US","OBJECT_NAME":"STARLINK-2161","DECAY_DATE":null,"ARG_OF_PERICENTER":"69.2690","MEAN_ANOMALY":"290.8524","SEMIMAJOR_AXIS":"6925.365","INCLINATION":"53.0545","CLASSIFICATION_TYPE":"U","APOAPSIS":"548.685","SITE":"AFETR","LAUNCH_DATE":"2021-03-04","RA_OF_ASC_NODE":"233.5537","MEAN_ELEMENT_THEORY":"SGP4","REV_AT_EPOCH":"4717","PERIOD":"95.592","OBJECT_ID":"2021-017AB","TLE_LINE1":"1 47747U 21017AB  21363.91272534  .00000051  00000-0  22340-4 0  9999","CENTER_NAME":"EARTH","BSTAR":"0.00002234000000"}];
